ATLAS CENTAUR 2         
1 00694U 63047A   26188.21132781  .00000974  00000+0  10843-3 0  9997
2 00694  30.3517 247.4112 0545738  54.1079 310.8945 14.12554496148531
THOR AGENA D R/B        
1 00733U 64002A   26188.66955985  .00000136  00000+0  66038-4 0  9999
2 00733  99.1153 208.5063 0031752 269.2024  90.5521 14.34074020255492
SL-3 R/B                
1 00877U 64053B   26188.72240294  .00000128  00000+0  49031-4 0  9996
2 00877  65.0780 339.3001 0080499 254.6808 104.5385 14.61436837284331
SL-8 R/B                
1 02802U 67045B   26188.29211430  .00000250  00000+0  76537-4 0  9999
2 02802  74.0112 124.7093 0063004 103.5774 257.2413 14.45692552106302
SL-8 R/B                
1 03230U 68040B   26188.80534463  .00002098  00000+0  15429-3 0  9996
2 03230  74.0304  68.1211 0025435 217.7233 142.2173 15.03917688108064
OAO 2                   
1 03597U 68110A   26188.47419307  .00000152  00000+0  46020-4 0  9993
2 03597  34.9944 316.4053 0004843  75.3913 284.7315 14.47359906 36465
ISIS 1                  
1 03669U 69009A   26188.28435476  .00000071  00000+0  46248-4 0  9997
2 03669  88.4445 142.1923 1706962 207.6262 142.2971 11.30435896362048
SERT 2                  
1 04327U 70009A   26188.79798757 -.00000006  00000+0  47735-4 0  9992
2 04327  99.2840 125.4050 0004247 209.5037 205.4281 13.58740673796200
SL-3 R/B                
1 05118U 71028B   26188.75969750  .00037679  00000+0  28791-3 0  9997
2 05118  81.2313 262.5609 0014411 207.9626 152.0861 15.71849285  7479
ASTEX 1                 
1 05560U 71089A   26188.41824035  .00000334  00000+0  84793-4 0  9997
2 05560  92.7001 190.3711 0017224  46.5269 313.7367 14.50867630879663
SL-8 R/B                
1 05730U 71119B   26188.79570600  .00004287  00000+0  22044-3 0  9998
2 05730  73.8884 310.8270 0543112 252.6529 101.4549 14.39670663672760
OAO 3 (COPERNICUS)      
1 06153U 72065A   26188.47485148  .00000251  00000+0  55832-4 0  9995
2 06153  35.0068 334.8072 0006001  56.6096 347.9993 14.60072044863712
ATLAS CENTAUR R/B       
1 06155U 72065B   26188.40907198  .00000747  00000+0  10426-3 0  9993
2 06155  35.0027 323.9892 0034220 297.8597  61.8639 14.77958196858988
SL-8 R/B                
1 08459U 75112B   26188.35140643  .00000177  00000+0  66860-4 0  9997
2 08459  74.0598 158.7776 0016479 222.9096 137.0774 14.38255199649071
SL-3 R/B                
1 10114U 77057B   26188.70732856  .00007614  00000+0  14596-3 0  9991
2 10114  97.5853   6.2490 0006426 196.7779 163.3259 15.48302914686883
SEASAT 1                
1 10967U 78064A   26188.15993315  .00000156  00000+0  81929-4 0  9993
2 10967 108.0185  16.2164 0001263 247.4863 112.6149 14.46256805523784
SL-14 R/B               
1 11267U 79011B   26188.42910053  .00000455  00000+0  42191-4 0  9998
2 11267  82.5247 342.9426 0016498  22.7796 337.4152 14.92033357546634
SL-8 R/B                
1 11574U 79089B   26188.59579042  .00000166  00000+0  57951-4 0  9990
2 11574  74.0673 229.0776 0015693   5.9553 354.1787 14.42412898453393
SL-14 R/B               
1 11672U 80005B   26188.45397085  .00000448  00000+0  42537-4 0  9996
2 11672  82.5132 193.6148 0017092 121.1008 239.1891 14.91045428494338
SL-8 R/B                
1 12139U 81003B   26188.43610260  .00013617  00000+0  32470-3 0  9991
2 12139  82.9375 178.9502 0250342 120.6224 241.9958 15.14875522332788
SL-3 R/B                
1 12465U 81046B   26188.72784757  .00008698  00000+0  18509-3 0  9995
2 12465  81.2304 145.3170 0016267 325.5144  34.5043 15.44659692456943
SL-3 R/B                
1 12904U 81103B   26188.75821359  .00003336  00000+0  14292-3 0  9999
2 12904  81.1578  72.4631 0011636 238.7612 121.2481 15.22452328991492
SL-3 R/B                
1 13068U 82013B   26188.72329132  .00002813  00000+0  11797-3 0  9997
2 13068  81.1735  19.9486 0022694 132.5460 227.7694 15.22926071422613
SL-3 R/B                
1 13154U 82039B   26188.76765109  .00002473  00000+0  14681-3 0  9990
2 13154  81.1500  77.3103 0027657 284.2729  75.5425 15.10669619399769
SL-3 R/B                
1 13403U 82079B   26188.70742015  .00003561  00000+0  13642-3 0  9991
2 13403  81.1452  51.2114 0024898 117.7539 242.6224 15.25966836395990
SL-14 R/B               
1 13553U 82092B   26188.71098772  .00000326  00000+0  33805-4 0  9997
2 13553  82.5669  29.0959 0018743 262.4756 142.5884 14.86761431346763
SL-3 R/B                
1 13819U 83010B   26188.59483943  .00009624  00000+0  17192-3 0  9997
2 13819  81.1001 214.8203 0013895 351.7291   8.3724 15.49770997376490
SL-3 R/B                
1 14208U 83075B   26188.72275028  .00007038  00000+0  17223-3 0  9991
2 14208  97.6109 198.0708 0021551 154.8331 205.3970 15.40879050348629
COSMOS 1536             
1 14699U 84013A   26188.43557862  .00004329  00000+0  17038-3 0  9999
2 14699  82.5454 348.6731 0013226 216.6051 143.4285 15.25283141290860
SL-14 R/B               
1 14820U 84027B   26188.61693316  .00000372  00000+0  39636-4 0  9998
2 14820  82.5427 132.5595 0016496 299.0686  60.8877 14.86075621265448
SL-8 R/B                
1 15483U 85006B   26188.75152075  .00000112  00000+0  45829-4 0  9992
2 15483  74.0451  40.2207 0019240 284.3224 147.1317 14.37842478171281
